OBJECT_NAME,OBJECT_ID,EPOCH,MEAN_MOTION,ECCENTRICITY,INCLINATION,RA_OF_ASC_NODE,ARG_OF_PERICENTER,MEAN_ANOMALY,EPHEMERIS_TYPE,CLASSIFICATION_TYPE,NORAD_CAT_ID,ELEMENT_SET_NO,REV_AT_EPOCH,BSTAR,MEAN_MOTION_DOT,MEAN_MOTION_DDOT
QIANFAN-63,2025-016J,2026-03-01T11:56:27.390336,13.50994841,.0018162,88.9697,94.9125,118.4933,241.8050,0,U,62793,999,5790,.85563E-4,.68E-6,0
QIANFAN-64,2025-016K,2026-03-01T11:09:06.460704,13.50992845,.0016158,88.9683,94.8793,112.0365,248.2504,0,U,62794,999,5789,.70135E-4,.58E-6,0
QIANFAN-65,2025-016L,2026-03-01T11:03:05.491872,13.51008414,.0015993,88.9680,94.9030,113.4946,246.7888,0,U,62795,999,5787,.76543E-4,.62E-6,0
QIANFAN-66,2025-016M,2026-03-01T11:44:31.259616,13.50996522,.0017133,88.9699,94.8856,109.7759,250.5242,0,U,62796,999,5792,.70748E-4,.58E-6,0
QIANFAN-67,2025-016N,2026-03-01T11:50:21.568416,13.50994927,.0017046,88.9689,94.9030,115.8365,244.4547,0,U,62797,999,5789,.86187E-4,.68E-6,0
QIANFAN-68,2025-016P,2026-03-01T11:38:45.331296,13.51004956,.0017106,88.9692,94.9519,114.2747,246.0193,0,U,62798,999,5787,.8891E-4,.7E-6,0
QIANFAN-69,2025-016Q,2026-03-01T12:02:26.689056,13.50993190,.0017856,88.9672,94.8027,115.2645,245.0359,0,U,62799,999,5791,.66738E-4,.55E-6,0
QIANFAN-70,2025-016R,2026-03-01T10:39:25.060320,13.50996764,.0017529,88.9693,94.9638,106.8823,253.4252,0,U,62800,999,5786,.69847E-4,.57E-6,0
QIANFAN-71,2025-016S,2026-03-01T12:20:03.542496,13.50996245,.0017726,88.9687,94.9312,118.3670,241.9271,0,U,62801,999,5787,.57437E-4,.49E-6,0
QIANFAN-72,2025-016T,2026-03-01T10:57:07.088256,13.50995948,.0020882,88.9677,94.9429,125.4847,234.8256,0,U,62802,999,5785,.67942E-4,.56E-6,0
QIANFAN-73,2025-046A,2026-03-01T11:35:48.007392,13.50997043,.0013115,88.9766,311.8914,256.7082,103.2606,0,U,63159,999,5804,.2278E-3,.159E-5,0
QIANFAN-74,2025-046B,2026-03-01T11:12:11.215872,13.50996692,.0001876,88.9766,311.7818,77.9771,282.1590,0,U,63160,999,5810,.27249E-3,.188E-5,0
QIANFAN-75,2025-046C,2026-03-01T10:53:40.499808,13.51000596,.0014329,88.9768,312.0179,260.4168,99.5364,0,U,63161,999,5797,.27831E-3,.192E-5,0
QIANFAN-76,2025-046D,2026-03-01T10:48:26.537760,13.51012864,.0011891,88.9767,311.9983,261.3102,98.6702,0,U,63162,999,5798,.28954E-3,.199E-5,0
QIANFAN-77,2025-046E,2026-03-01T10:51:06.607584,13.96171250,.0014006,88.9764,309.3585,187.9541,172.1415,0,U,63163,999,5943,.27411E-3,.39E-5,0
QIANFAN-78,2025-046F,2026-03-01T10:01:00.376608,13.50996970,.0013232,88.9766,311.8650,264.0313,95.9330,0,U,63164,999,5805,.28992E-3,.199E-5,0
QIANFAN-79,2025-046G,2026-03-01T10:42:43.711200,13.51007211,.0013077,88.9770,311.9727,262.1693,97.7973,0,U,63165,999,5800,.26677E-3,.184E-5,0
QIANFAN-80,2025-046H,2026-03-01T11:06:09.109152,13.50996811,.0011928,88.9767,311.6757,266.9425,93.0362,0,U,63166,999,5816,.2593E-3,.179E-5,0
QIANFAN-81,2025-046J,2026-03-01T10:34:37.669728,13.50982751,.0012942,88.9767,311.7458,254.6243,105.3478,0,U,63167,999,5811,.23822E-3,.166E-5,0
QIANFAN-82,2025-046K,2026-03-01T11:23:59.624160,13.50998186,.0011035,88.9768,311.7862,262.6984,97.2913,0,U,63168,999,5810,.2492E-3,.173E-5,0
QIANFAN-83,2025-046L,2026-03-01T10:54:00.250848,13.62018329,.0012317,88.9767,311.4102,240.4661,119.5269,0,U,63169,999,5831,.3165E-3,.256E-5,0
QIANFAN-84,2025-046M,2026-03-01T10:17:15.849024,13.50973103,.0013995,88.9767,311.9234,258.5407,101.4172,0,U,63170,999,5802,.29524E-3,.203E-5,0
QIANFAN-85,2025-046N,2026-03-01T10:12:52.583040,13.51000946,.0011443,88.9767,311.7953,261.4928,98.4927,0,U,63171,999,5809,.28475E-3,.196E-5,0
QIANFAN-86,2025-046P,2026-03-01T12:11:23.138880,13.51000087,.0009312,88.9769,311.6507,266.7123,93.2963,0,U,63172,999,5818,.27228E-3,.188E-5,0
QIANFAN-87,2025-046Q,2026-03-01T11:30:03.782880,13.51008388,.0009962,88.9765,311.7622,260.7839,99.2186,0,U,63173,999,5811,.2623E-3,.181E-5,0
QIANFAN-88,2025-046R,2026-03-01T10:06:52.052256,13.50996741,.0010403,88.9768,311.7248,270.5791,89.4168,0,U,63174,999,5813,.26814E-3,.185E-5,0
QIANFAN-89,2025-046S,2026-03-01T11:00:27.866304,13.51007322,.0014833,88.9768,311.9100,258.9417,101.0066,0,U,63175,999,5803,.26224E-3,.181E-5,0
QIANFAN-90,2025-046T,2026-03-01T09:55:20.190432,13.51007012,.0011764,88.9768,311.8871,257.5696,102.4139,0,U,63176,999,5804,.25422E-3,.176E-5,0
QIANFAN-91,2025-233A,2026-03-01T10:42:10.834272,13.51004229,.0001902,88.9923,54.0859,92.6679,267.4689,0,U,66033,999,1863,.1019E-3,.78E-6,0
QIANFAN-92,2025-233B,2026-03-01T10:53:56.088960,13.50996208,.0001949,88.9907,54.0743,85.8512,274.2862,0,U,66034,999,1863,.39765E-4,.38E-6,0
QIANFAN-93,2025-233C,2026-03-01T11:05:47.727744,13.50995962,.0001878,88.9934,54.0962,90.2362,269.9005,0,U,66035,999,1863,.50256E-4,.44E-6,0
