QIANFAN-63              
1 62793U 25016J   26060.49753924  .00000068  00000+0  85563-4 0  9992
2 62793  88.9697  94.9125 0018162 118.4933 241.8050 13.50994841 57908
QIANFAN-64              
1 62794U 25016K   26060.46465811  .00000058  00000+0  70135-4 0  9993
2 62794  88.9683  94.8793 0016158 112.0365 248.2504 13.50992845 57891
QIANFAN-65              
1 62795U 25016L   26060.46048023  .00000062  00000+0  76543-4 0  9990
2 62795  88.9680  94.9030 0015993 113.4946 246.7888 13.51008414 57877
QIANFAN-66              
1 62796U 25016M   26060.48925069  .00000058  00000+0  70748-4 0  9993
2 62796  88.9699  94.8856 0017133 109.7759 250.5242 13.50996522 57929
QIANFAN-67              
1 62797U 25016N   26060.49330519  .00000068  00000+0  86187-4 0  9990
2 62797  88.9689  94.9030 0017046 115.8365 244.4547 13.50994927 57891
QIANFAN-68              
1 62798U 25016P   26060.48524689  .00000070  00000+0  88910-4 0  9992
2 62798  88.9692  94.9519 0017106 114.2747 246.0193 13.51004956 57870
QIANFAN-69              
1 62799U 25016Q   26060.50169779  .00000055  00000+0  66738-4 0  9998
2 62799  88.9672  94.8027 0017856 115.2645 245.0359 13.50993190 57916
QIANFAN-70              
1 62800U 25016R   26060.44404005  .00000057  00000+0  69847-4 0  9994
2 62800  88.9693  94.9638 0017529 106.8823 253.4252 13.50996764 57861
QIANFAN-71              
1 62801U 25016S   26060.51392989  .00000049  00000+0  57437-4 0  9993
2 62801  88.9687  94.9312 0017726 118.3670 241.9271 13.50996245 57879
QIANFAN-72              
1 62802U 25016T   26060.45633204  .00000056  00000+0  67942-4 0  9995
2 62802  88.9677  94.9429 0020882 125.4847 234.8256 13.50995948 57851
QIANFAN-73              
1 63159U 25046A   26060.48319453  .00000159  00000+0  22780-3 0  9998
2 63159  88.9766 311.8914 0013115 256.7082 103.2606 13.50997043 58044
QIANFAN-74              
1 63160U 25046B   26060.46679648  .00000188  00000+0  27249-3 0  9990
2 63160  88.9766 311.7818 0001876  77.9771 282.1590 13.50996692 58102
QIANFAN-75              
1 63161U 25046C   26060.45394097  .00000192  00000+0  27831-3 0  9994
2 63161  88.9768 312.0179 0014329 260.4168  99.5364 13.51000596 57978
QIANFAN-76              
1 63162U 25046D   26060.45030715  .00000199  00000+0  28954-3 0  9993
2 63162  88.9767 311.9983 0011891 261.3102  98.6702 13.51012864 57986
QIANFAN-77              
1 63163U 25046E   26060.45215981  .00000390  00000+0  27411-3 0  9994
2 63163  88.9764 309.3585 0014006 187.9541 172.1415 13.96171250 59439
QIANFAN-78              
1 63164U 25046F   26060.41736547  .00000199  00000+0  28992-3 0  9999
2 63164  88.9766 311.8650 0013232 264.0313  95.9330 13.50996970 58056
QIANFAN-79              
1 63165U 25046G   26060.44633925  .00000184  00000+0  26677-3 0  9991
2 63165  88.9770 311.9727 0013077 262.1693  97.7973 13.51007211 58005
QIANFAN-80              
1 63166U 25046H   26060.46260543  .00000179  00000+0  25930-3 0  9991
2 63166  88.9767 311.6757 0011928 266.9425  93.0362 13.50996811 58160
QIANFAN-81              
1 63167U 25046J   26060.44071377  .00000166  00000+0  23822-3 0  9999
2 63167  88.9767 311.7458 0012942 254.6243 105.3478 13.50982751 58117
QIANFAN-82              
1 63168U 25046K   26060.47499565  .00000173  00000+0  24920-3 0  9994
2 63168  88.9768 311.7862 0011035 262.6984  97.2913 13.50998186 58102
QIANFAN-83              
1 63169U 25046L   26060.45416957  .00000256  00000+0  31650-3 0  9997
2 63169  88.9767 311.4102 0012317 240.4661 119.5269 13.62018329 58316
QIANFAN-84              
1 63170U 25046M   26060.42865566  .00000203  00000+0  29524-3 0  9999
2 63170  88.9767 311.9234 0013995 258.5407 101.4172 13.50973103 58028
QIANFAN-85              
1 63171U 25046N   26060.42560860  .00000196  00000+0  28475-3 0  9994
2 63171  88.9767 311.7953 0011443 261.4928  98.4927 13.51000946 58099
QIANFAN-86              
1 63172U 25046P   26060.50790670  .00000188  00000+0  27228-3 0  9994
2 63172  88.9769 311.6507 0009312 266.7123  93.2963 13.51000087 58182
QIANFAN-87              
1 63173U 25046Q   26060.47921045  .00000181  00000+0  26230-3 0  9998
2 63173  88.9765 311.7622 0009962 260.7839  99.2186 13.51008388 58115
QIANFAN-88              
1 63174U 25046R   26060.42143579  .00000185  00000+0  26814-3 0  9994
2 63174  88.9768 311.7248 0010403 270.5791  89.4168 13.50996741 58132
QIANFAN-89              
1 63175U 25046S   26060.45865586  .00000181  00000+0  26224-3 0  9998
2 63175  88.9768 311.9100 0014833 258.9417 101.0066 13.51007322 58034
QIANFAN-90              
1 63176U 25046T   26060.41342813  .00000176  00000+0  25422-3 0  9991
2 63176  88.9768 311.8871 0011764 257.5696 102.4139 13.51007012 58046
QIANFAN-91              
1 66033U 25233A   26060.44595873  .00000078  00000+0  10190-3 0  9990
2 66033  88.9923  54.0859 0001902  92.6679 267.4689 13.51004229 18638
QIANFAN-92              
1 66034U 25233B   26060.45412140  .00000038  00000+0  39765-4 0  9993
2 66034  88.9907  54.0743 0001949  85.8512 274.2862 13.50996208 18639
QIANFAN-93              
1 66035U 25233C   26060.46235796  .00000044  00000+0  50256-4 0  9990
2 66035  88.9934  54.0962 0001878  90.2362 269.9005 13.50995962 18633
